{
  "type": "FeatureCollection",
  "features": [
    {
      "type": "Feature",
      "properties": {
        "norad_id": 35839,
        "name": "COSMOS 2251 DEB",
        "group": "cosmos-2251-debris",
        "lat": 72.20452029174673,
        "lon": 56.59243649610354,
        "alt_km": 372.77120050010944,
        "timestamp": "2025-12-24T03:53:30.044040+00:00",
        "meta_object_name": "COSMOS 2251 DEB",
        "meta_object_id": "1993-036ATM",
        "meta_epoch": "2025-12-22T13:00:04.597632",
        "meta_mean_motion": 15.59480867,
        "meta_eccentricity": 0.0007508,
        "meta_inclination": 74.2046,
        "meta_ra_of_asc_node": 302.0435,
        "meta_arg_of_pericenter": 136.7735,
        "meta_mean_anomaly": 223.4075,
        "meta_ephemeris_type": 0,
        "meta_classification_type": "U",
        "meta_norad_cat_id": 35839,
        "meta_element_set_no": 999,
        "meta_rev_at_epoch": 88720,
        "meta_bstar": 0.0064439432,
        "meta_mean_motion_dot": 0.0054719,
        "meta_mean_motion_ddot": 0,
        "tle_line1": "1 35839U 93036ATM 25356.54171988  .00547190  00000+0  64439-2 0  9996",
        "tle_line2": "2 35839  74.2046 302.0435 0007508 136.7735 223.4075 15.59480867887203"
      },
      "geometry": {
        "type": "Point",
        "coordinates": [
          56.59243649610354,
          72.20452029174673
        ]
      }
    },
    {
      "type": "Feature",
      "properties": {
        "norad_id": 35840,
        "name": "COSMOS 2251 DEB",
        "group": "cosmos-2251-debris",
        "lat": 51.95471666861033,
        "lon": 158.624606557308,
        "alt_km": 680.9169439877414,
        "timestamp": "2025-12-24T03:53:30.044051+00:00",
        "meta_object_name": "COSMOS 2251 DEB",
        "meta_object_id": "1993-036ATN",
        "meta_epoch": "2025-12-12T04:26:56.474304",
        "meta_mean_motion": 14.37821687,
        "meta_eccentricity": 0.01162768,
        "meta_inclination": 73.9307,
        "meta_ra_of_asc_node": 159.2062,
        "meta_arg_of_pericenter": 61.7798,
        "meta_mean_anomaly": 299.5037,
        "meta_ephemeris_type": 0,
        "meta_classification_type": "U",
        "meta_norad_cat_id": 35840,
        "meta_element_set_no": 999,
        "meta_rev_at_epoch": 85283,
        "meta_bstar": 0.0026691111,
        "meta_mean_motion_dot": 8.683e-05,
        "meta_mean_motion_ddot": 0,
        "tle_line1": "1 35840U 93036ATN 25346.18537586  .00008683  00000+0  26691-2 0  9994",
        "tle_line2": "2 35840  73.9307 159.2062 0116276  61.7798 299.5037 14.37821687852835"
      },
      "geometry": {
        "type": "Point",
        "coordinates": [
          158.624606557308,
          51.95471666861033
        ]
      }
    },
    {
      "type": "Feature",
      "properties": {
        "norad_id": 35883,
        "name": "COSMOS 2251 DEB",
        "group": "cosmos-2251-debris",
        "lat": -34.82257080668764,
        "lon": -119.9618146043804,
        "alt_km": 684.6186121384371,
        "timestamp": "2025-12-24T03:53:30.044061+00:00",
        "meta_object_name": "COSMOS 2251 DEB",
        "meta_object_id": "1993-036ATW",
        "meta_epoch": "2025-12-16T04:41:35.789568",
        "meta_mean_motion": 14.50615193,
        "meta_eccentricity": 0.00835028,
        "meta_inclination": 74.0253,
        "meta_ra_of_asc_node": 63.5249,
        "meta_arg_of_pericenter": 192.1269,
        "meta_mean_anomaly": 197.0315,
        "meta_ephemeris_type": 0,
        "meta_classification_type": "U",
        "meta_norad_cat_id": 35883,
        "meta_element_set_no": 999,
        "meta_rev_at_epoch": 62436,
        "meta_bstar": 0.00022216854,
        "meta_mean_motion_dot": 8.82e-06,
        "meta_mean_motion_ddot": 0,
        "tle_line1": "1 35883U 93036ATW 25350.19555312  .00000882  00000+0  22217-3 0  9998",
        "tle_line2": "2 35883  74.0253  63.5249 0083502 192.1269 197.0315 14.50615193624369"
      },
      "geometry": {
        "type": "Point",
        "coordinates": [
          -119.9618146043804,
          -34.82257080668764
        ]
      }
    },
    {
      "type": "Feature",
      "properties": {
        "norad_id": 35884,
        "name": "COSMOS 2251 DEB",
        "group": "cosmos-2251-debris",
        "lat": -8.494856428906028,
        "lon": -47.13162837491868,
        "alt_km": 832.895662968238,
        "timestamp": "2025-12-24T03:53:30.044071+00:00",
        "meta_object_name": "COSMOS 2251 DEB",
        "meta_object_id": "1993-036ATX",
        "meta_epoch": "2025-12-23T04:21:24.693984",
        "meta_mean_motion": 14.25720371,
        "meta_eccentricity": 0.01085787,
        "meta_inclination": 73.9917,
        "meta_ra_of_asc_node": 317.1007,
        "meta_arg_of_pericenter": 101.1734,
        "meta_mean_anomaly": 260.1642,
        "meta_ephemeris_type": 0,
        "meta_classification_type": "U",
        "meta_norad_cat_id": 35884,
        "meta_element_set_no": 999,
        "meta_rev_at_epoch": 22506,
        "meta_bstar": 0.0013065465,
        "meta_mean_motion_dot": 3.275e-05,
        "meta_mean_motion_ddot": 0,
        "tle_line1": "1 35884U 93036ATX 25357.18153581  .00003275  00000+0  13065-2 0  9996",
        "tle_line2": "2 35884  73.9917 317.1007 0108578 101.1734 260.1642 14.25720371225069"
      },
      "geometry": {
        "type": "Point",
        "coordinates": [
          -47.13162837491868,
          -8.494856428906028
        ]
      }
    },
    {
      "type": "Feature",
      "properties": {
        "norad_id": 35885,
        "name": "COSMOS 2251 DEB",
        "group": "cosmos-2251-debris",
        "lat": -73.97095314537846,
        "lon": 179.21963069853015,
        "alt_km": 771.5056797967563,
        "timestamp": "2025-12-24T03:53:30.044081+00:00",
        "meta_object_name": "COSMOS 2251 DEB",
        "meta_object_id": "1993-036ATY",
        "meta_epoch": "2025-12-23T01:35:28.135968",
        "meta_mean_motion": 14.37538947,
        "meta_eccentricity": 0.00237371,
        "meta_inclination": 74.0286,
        "meta_ra_of_asc_node": 275.7818,
        "meta_arg_of_pericenter": 354.0734,
        "meta_mean_anomaly": 6.0135,
        "meta_ephemeris_type": 0,
        "meta_classification_type": "U",
        "meta_norad_cat_id": 35885,
        "meta_element_set_no": 999,
        "meta_rev_at_epoch": 65164,
        "meta_bstar": 0.00028396743,
        "meta_mean_motion_dot": 8.27e-06,
        "meta_mean_motion_ddot": 0,
        "tle_line1": "1 35885U 93036ATY 25357.06629787  .00000827  00000+0  28397-3 0  9995",
        "tle_line2": "2 35885  74.0286 275.7818 0023737 354.0734   6.0135 14.37538947651642"
      },
      "geometry": {
        "type": "Point",
        "coordinates": [
          179.21963069853015,
          -73.97095314537846
        ]
      }
    },
    {
      "type": "Feature",
      "properties": {
        "norad_id": 35888,
        "name": "COSMOS 2251 DEB",
        "group": "cosmos-2251-debris",
        "lat": -2.836804968079459,
        "lon": -25.889683784784875,
        "alt_km": 710.9092887417673,
        "timestamp": "2025-12-24T03:53:30.044091+00:00",
        "meta_object_name": "COSMOS 2251 DEB",
        "meta_object_id": "1993-036AUB",
        "meta_epoch": "2025-12-23T04:51:21.809664",
        "meta_mean_motion": 14.58352847,
        "meta_eccentricity": 0.00479955,
        "meta_inclination": 74.0338,
        "meta_ra_of_asc_node": 336.7494,
        "meta_arg_of_pericenter": 105.6018,
        "meta_mean_anomaly": 255.0451,
        "meta_ephemeris_type": 0,
        "meta_classification_type": "U",
        "meta_norad_cat_id": 35888,
        "meta_element_set_no": 999,
        "meta_rev_at_epoch": 86426,
        "meta_bstar": 0.00040405486,
        "meta_mean_motion_dot": 1.871e-05,
        "meta_mean_motion_ddot": 0,
        "tle_line1": "1 35888U 93036AUB 25357.20233576  .00001871  00000+0  40405-3 0  9995",
        "tle_line2": "2 35888  74.0338 336.7494 0047995 105.6018 255.0451 14.58352847864265"
      },
      "geometry": {
        "type": "Point",
        "coordinates": [
          -25.889683784784875,
          -2.836804968079459
        ]
      }
    },
    {
      "type": "Feature",
      "properties": {
        "norad_id": 35890,
        "name": "COSMOS 2251 DEB",
        "group": "cosmos-2251-debris",
        "lat": 7.780327804689398,
        "lon": -136.8844436828028,
        "alt_km": 667.5775768024778,
        "timestamp": "2025-12-24T03:53:30.044101+00:00",
        "meta_object_name": "COSMOS 2251 DEB",
        "meta_object_id": "1993-036AUD",
        "meta_epoch": "2025-12-21T00:05:00.914784",
        "meta_mean_motion": 14.57585084,
        "meta_eccentricity": 0.00541447,
        "meta_inclination": 73.9362,
        "meta_ra_of_asc_node": 226.8978,
        "meta_arg_of_pericenter": 350.2956,
        "meta_mean_anomaly": 9.7156,
        "meta_ephemeris_type": 0,
        "meta_classification_type": "U",
        "meta_norad_cat_id": 35890,
        "meta_element_set_no": 999,
        "meta_rev_at_epoch": 65271,
        "meta_bstar": 0.0010880234,
        "meta_mean_motion_dot": 5.027e-05,
        "meta_mean_motion_ddot": 0,
        "tle_line1": "1 35890U 93036AUD 25355.00348281  .00005027  00000+0  10880-2 0  9994",
        "tle_line2": "2 35890  73.9362 226.8978 0054144 350.2956   9.7156 14.57585084652713"
      },
      "geometry": {
        "type": "Point",
        "coordinates": [
          -136.8844436828028,
          7.780327804689398
        ]
      }
    }
  ]
}